ISS OBJECT XW           
1 66910U 98067XW  26060.35238090  .00122188  00000+0  11540-2 0  9990
2 66910  51.6248 107.9716 0004687  42.0873 318.0482 15.66113269 13875
ISS OBJECT XX           
1 66911U 98067XX  26060.83028502  .00212327  00000+0  15933-2 0  9994
2 66911  51.6226 104.4016 0006965  37.9423 322.2065 15.71384697 13956
ISS OBJECT XY           
1 66912U 98067XY  26060.84454267  .00085950  00000+0  95753-3 0  9996
2 66912  51.6273 106.7719 0002801  47.0626 313.0602 15.62092614 13923
ISS OBJECT XZ           
1 67683U 98067XZ  26060.74047329  .00041861  00000+0  70811-3 0  9999
2 67683  51.6323 111.3281 0009603 159.6177 200.5198 15.51106476  3557
GXIBA-1                 
1 67684U 98067YA  26060.53111716  .00075127  00000+0  11805-2 0  9998
2 67684  51.6306 112.1796 0011045 149.3528 210.8109 15.52893604  3528
CORAL                   
1 67685U 98067YB  26060.86650022  .00044685  00000+0  74665-3 0  9992
2 67685  51.6314 110.6689 0011563 156.0444 204.1086 15.51398872  3570
ISS OBJECT YC           
1 67686U 98067YC  26060.41246378  .00054052  00000+0  89126-3 0  9996
2 67686  51.6316 112.8884 0007664 122.7439 237.4290 15.51728286  3500
LEOPARD                 
1 67687U 98067YD  26060.73893028  .00043630  00000+0  73456-3 0  9991
2 67687  51.6315 111.3180 0007663 127.4895 232.6792 15.51238778  3472
ISS OBJECT YE           
1 67688U 98067YE  26060.41383435  .00050179  00000+0  83355-3 0  9998
2 67688  51.6318 112.8976 0007609 123.4438 236.7280 15.51553933  3429
CREW DRAGON 12          
1 67796U 26031A   26060.83336605  .00009867  00000+0  19089-3 0  9994
2 67796  51.6319 111.1961 0008284 147.0223 213.1284 15.48387794554857
